H1 CPF 01  gfz 2021 05 24 00  6441 tandemx   
H2 1003001  6202 36605    2021 05 24 00 59 42 2021 05 29 00 00 42   120 1 1  0 0 0
H9
10 0 59361  25902.000000  0   -3296353.917    214185.718  -6052071.626
10 0 59361  26022.000000  0   -4013194.257    542614.049  -5579935.337
10 0 59361  26142.000000  0   -4654609.361    873509.905  -5010256.536
10 0 59361  26262.000000  0   -5209401.811   1199695.644  -4352902.802
10 0 59361  26382.000000  0   -5667978.813   1513880.517  -3619293.811
10 0 59361  26502.000000  0   -6022528.090   1808818.291  -2822211.327
10 0 59361  26622.000000  0   -6267162.856   2077467.945  -1975582.289
10 0 59361  26742.000000  0   -6398031.898   2313154.836  -1094237.713
10 0 59361  26862.000000  0   -6413391.072   2509728.035   -193650.568
10 0 59361  26982.000000  0   -6313632.871   2661709.005    710342.134
10 0 59361  27102.000000  0   -6101272.181   2764428.430   1601825.881
10 0 59361  27222.000000  0   -5780889.206   2814147.756   2465097.988
10 0 59361  27342.000000  0   -5359030.333   2808161.101   3284952.695
10 0 59361  27462.000000  0   -4844070.778   2744875.449   4046956.729
10 0 59361  27582.000000  0   -4246040.621   2623866.622   4737707.981
10 0 59361  27702.000000  0   -3576421.651   2445910.945   5345071.936
10 0 59361  27822.000000  0   -2847919.671   2212992.150   5858393.759
10 0 59361  27942.000000  0   -2074215.675   1928283.068   6268682.253
10 0 59361  28062.000000  0   -1269702.603   1596102.177   6568761.862
10 0 59361  28182.000000  0    -449213.653   1221846.619   6753390.913
10 0 59361  28302.000000  0     372251.382    811903.047   6819346.788
10 0 59361  28422.000000  0    1179799.602    373538.102   6765478.593
10 0 59361  28542.000000  0    1958913.777    -85229.869   6592725.831
10 0 59361  28662.000000  0    2695712.334   -555776.726   6304103.879
10 0 59361  28782.000000  0    3377197.372  -1029033.857   5904655.547
10 0 59361  28902.000000  0    3991487.162  -1495661.701   5401368.328
10 0 59361  29022.000000  0    4528027.501  -1946233.785   4803057.404
10 0 59361  29142.000000  0    4977778.769  -2371426.680   4120217.430
10 0 59361  29262.000000  0    5333376.978  -2762213.377   3364843.331
10 0 59361  29382.000000  0    5589262.724  -3110055.346   2550220.005
10 0 59361  29502.000000  0    5741773.537  -3407088.129   1690686.818
10 0 59361  29622.000000  0    5789199.934  -3646297.358    801381.811
10 0 59361  29742.000000  0    5731801.863  -3821679.455   -102032.336
10 0 59361  29862.000000  0    5571785.712  -3928383.004  -1003652.077
10 0 59361  29982.000000  0    5313241.263  -3962826.975  -1887622.886
10 0 59361  30102.000000  0    4962040.744  -3922792.180  -2738425.865
10 0 59361  30222.000000  0    4525703.158  -3807485.493  -3541155.590
10 0 59361  30342.000000  0    4013227.743  -3617574.412  -4281783.805
10 0 59361  30462.000000  0    3434901.368  -3355192.056  -4947403.055
10 0 59361  30582.000000  0    2802085.213  -3023912.304  -5526446.343
10 0 59361  30702.000000  0    2126986.651  -2628697.661  -6008878.446
10 0 59361  30822.000000  0    1422422.214  -2175822.260  -6386359.425
10 0 59361  30942.000000  0     701573.841  -1672768.905  -6652379.522
10 0 59361  31062.000000  0     -22256.148  -1128102.889  -6802360.380
10 0 59361  31182.000000  0    -735886.064   -551326.887  -6833724.391
10 0 59361  31302.000000  0   -1426488.793     47281.645  -6745933.627
10 0 59361  31422.000000  0   -2081817.180    656849.177  -6540497.558
10 0 59361  31542.000000  0   -2690415.992   1266098.304  -6220949.585
10 0 59361  31662.000000  0   -3241818.278   1863551.048  -5792793.135
10 0 59361  31782.000000  0   -3726724.951   2437740.681  -5263417.870
10 0 59361  31902.000000  0   -4137165.346   2977429.911  -4641984.101
10 0 59361  32022.000000  0   -4466633.811   3471830.556  -3939274.380
10 0 59361  32142.000000  0   -4710198.668   3910820.450  -3167516.179
10 0 59361  32262.000000  0   -4864583.176   4285153.817  -2340176.871
10 0 59361  32382.000000  0   -4928214.907   4586659.010  -1471732.377
10 0 59361  32502.000000  0   -4901242.609   4808419.816   -577414.308
10 0 59361  32622.000000  0   -4785518.567   4944934.977    327061.561
10 0 59361  32742.000000  0   -4584545.287   4992251.169   1225778.667
10 0 59361  32862.000000  0   -4303389.693   4948064.549   2102909.402
10 0 59361  32982.000000  0   -3948563.457   4811788.653   2943003.683
10 0 59361  33102.000000  0   -3527874.782   4584587.268   3731268.565
10 0 59361  33222.000000  0   -3050256.436   4269372.003   4453833.851
10 0 59361  33342.000000  0   -2525574.149   3870764.899   5097999.411
10 0 59361  33462.000000  0   -1964419.176   3395026.234   5652458.762
10 0 59361  33582.000000  0   -1377890.809   2849950.054   6107494.631
10 0 59361  33702.000000  0    -777373.730   2244730.063   6455143.767
10 0 59361  33822.000000  0    -174316.487   1589799.742   6689328.798
10 0 59361  33942.000000  0     419986.259    896649.973   6805959.495
10 0 59361  34062.000000  0     994605.045    177626.002   6802999.139
10 0 59361  34182.000000  0    1539175.440   -554291.562   6680497.903
10 0 59361  34302.000000  0    2044084.367  -1285720.652   6440592.875
10 0 59361  34422.000000  0    2500639.862  -2003121.592   6087473.329
10 0 59361  34542.000000  0    2901222.615  -2693048.153   5627313.078
10 0 59361  34662.000000  0    3239415.848  -3342401.189   5068167.759
10 0 59361  34782.000000  0    3510110.918  -3938680.502   4419839.758
10 0 59361  34902.000000  0    3709588.062  -4470230.339   3693711.368
10 0 59361  35022.000000  0    3835568.871  -4926473.353   2902547.040
10 0 59361  35142.000000  0    3887239.526  -5298127.277   2060268.885
10 0 59361  35262.000000  0    3865244.237  -5577399.157   1181708.408
10 0 59361  35382.000000  0    3771648.275  -5758151.595    282339.217
10 0 59361  35502.000000  0    3609872.178  -5836036.779   -622002.097
10 0 59361  35622.000000  0    3384598.683  -5808596.675  -1515404.238
10 0 59361  35742.000000  0    3101652.568  -5675323.227  -2382169.927
10 0 59361  35862.000000  0    2767859.742  -5437680.129  -3207098.324
10 0 59361  35982.000000  0    2390887.176  -5099084.162  -3975756.670
10 0 59361  36102.000000  0    1979068.297  -4664847.422  -4674733.286
10 0 59361  36222.000000  0    1541219.621  -4142083.388  -5291867.244
10 0 59361  36342.000000  0    1086454.062  -3539580.232  -5816452.271
10 0 59361  36462.000000  0     623993.296  -2867644.904  -6239412.537
10 0 59361  36582.000000  0     162983.069  -2137921.377  -6553448.449
10 0 59361  36702.000000  0    -287684.099  -1363186.129  -6753151.474
10 0 59361  36822.000000  0    -719535.638   -557125.042  -6835087.793
10 0 59361  36942.000000  0   -1124673.428    265904.951  -6797850.550
10 0 59361  37062.000000  0   -1495914.767   1091125.276  -6642080.382
10 0 59361  37182.000000  0   -1826916.642   1903594.260  -6370455.516
10 0 59361  37302.000000  0   -2112281.897   2688470.661  -5987650.990
10 0 59361  37422.000000  0   -2347647.379   3431280.588  -5500267.931
10 0 59361  37542.000000  0   -2529751.179   4118182.910  -4916730.640
10 0 59361  37662.000000  0   -2656479.094   4736229.630  -4247152.779
10 0 59361  37782.000000  0   -2726888.088   5273615.236  -3503171.333
10 0 59361  37902.000000  0   -2741205.411   5719908.329  -2697752.186
10 0 59361  38022.000000  0   -2700804.388   6066263.665  -1844971.095
10 0 59361  38142.000000  0   -2608156.314   6305608.254   -959768.555
10 0 59361  38262.000000  0   -2466758.952   6432793.105    -57686.060
10 0 59361  38382.000000  0   -2281044.865   6444712.152    845410.493
10 0 59361  38502.000000  0   -2056268.731   6340380.761   1733620.992
10 0 59361  38622.000000  0   -1798376.054   6120967.114   2591301.748
10 0 59361  38742.000000  0   -1513859.035   5789780.530   3403348.784
10 0 59361  38862.000000  0   -1209603.552   5352217.795   4155469.486
10 0 59361  38982.000000  0    -892731.027   4815668.667   4834438.701
10 0 59361  39102.000000  0    -570436.481   4189380.985   5428333.194
10 0 59361  39222.000000  0    -249829.267   3484292.171   5926737.462
10 0 59361  39342.000000  0      62219.278   2712829.997   6320923.171
10 0 59361  39462.000000  0     359219.687   1888686.412   6603995.673
10 0 59361  39582.000000  0     635196.694   1026570.467   6771009.026
10 0 59361  39702.000000  0     884807.414    141943.167   6819046.519
10 0 59361  39822.000000  0    1103443.407   -749258.797   6747268.289
10 0 59361  39942.000000  0    1287315.259  -1630909.768   6556926.236
10 0 59361  40062.000000  0    1433518.490  -2486986.486   6251343.804
10 0 59361  40182.000000  0    1540079.606  -3301860.259   5835862.005
10 0 59361  40302.000000  0    1605981.134  -4060584.994   5317750.597
10 0 59361  40422.000000  0    1631165.976  -4749174.201   4706085.676
10 0 59361  40542.000000  0    1616521.665  -5354864.296   4011597.515
10 0 59361  40662.000000  0    1563843.941  -5866361.222   3246486.656
10 0 59361  40782.000000  0    1475779.425  -6274060.018   2424209.151
10 0 59361  40902.000000  0    1355749.364  -6570233.407   1559238.943
10 0 59361  41022.000000  0    1207856.206  -6749187.132    666809.653
10 0 59361  41142.000000  0    1036774.981  -6807375.958   -237360.463
10 0 59361  41262.000000  0     847630.731  -6743477.463  -1137355.466
10 0 59361  41382.000000  0     645866.563  -6558417.377  -2017352.491
10 0 59361  41502.000000  0     437107.066  -6255349.179  -2861906.778
10 0 59361  41622.000000  0     227019.887  -5839591.428  -3656227.349
10 0 59361  41742.000000  0      21178.332  -5318522.935  -4386438.470
10 0 59361  41862.000000  0    -175071.624  -4701438.141  -5039819.963
10 0 59361  41982.000000  0    -356736.274  -3999369.322  -5605022.504
10 0 59361  42102.000000  0    -519288.507  -3224879.150  -6072256.147
10 0 59361  42222.000000  0    -658768.968  -2391828.648  -6433449.061
10 0 59361  42342.000000  0    -771872.734  -1515125.507  -6682375.371
99
